$$SOE
2460147.500000000, A.D. 2023-Jul-22 00:00:00.0000, -3.359983344494886E+08, -5.583256646007180E+08, 7.038942593053862E+07,
2460154.500000000, A.D. 2023-Jul-29 00:00:00.0000, -3.303638674715748E+08, -5.594325229301975E+08, 7.085265379420945E+07,
2460161.500000000, A.D. 2023-Aug-05 00:00:00.0000, -3.246720104772897E+08, -5.604421005286520E+08, 7.130356016626102E+07,
2460168.500000000, A.D. 2023-Aug-12 00:00:00.0000, -3.189232496367644E+08, -5.613533498408021E+08, 7.174195560083425E+07,
2460175.500000000, A.D. 2023-Aug-19 00:00:00.0000, -3.131180748556233E+08, -5.621651961897939E+08, 7.216764607990435E+07,
2460182.500000000, A.D. 2023-Aug-26 00:00:00.0000, -3.072569804360517E+08, -5.628765366935401E+08, 7.258043282926682E+07,
2460189.500000000, A.D. 2023-Sep-02 00:00:00.0000, -3.013404657925809E+08, -5.634862392091352E+08, 7.298011212145999E+07,
2460196.500000000, A.D. 2023-Sep-09 00:00:00.0000, -2.953690361886196E+08, -5.639931413441025E+08, 7.336647505841702E+07,
2460203.500000000, A.D. 2023-Sep-16 00:00:00.0000, -2.893432033282107E+08, -5.643960495898590E+08, 7.373930731317028E+07,
2460210.500000000, A.D. 2023-Sep-23 00:00:00.0000, -2.832634853897466E+08, -5.646937382877988E+08, 7.409838881533563E+07,
2460217.500000000, A.D. 2023-Sep-30 00:00:00.0000, -2.771304068445786E+08, -5.648849472341532E+08, 7.444349350828415E+07,
2460224.500000000, A.D. 2023-Oct-07 00:00:00.0000, -2.709445004177194E+08, -5.649683784629802E+08, 7.477438934890446E+07,
2460231.500000000, A.D. 2023-Oct-14 00:00:00.0000, -2.647063101543267E+08, -5.649426955170432E+08, 7.509083818317544E+07,
2460238.500000000, A.D. 2023-Oct-21 00:00:00.0000, -2.584163923675872E+08, -5.648065236007044E+08, 7.539259533185017E+07,
2460245.500000000, A.D. 2023-Oct-28 00:00:00.0000, -2.520753158972203E+08, -5.645584483511209E+08, 7.567940920108500E+07,
2460252.500000000, A.D. 2023-Nov-04 00:00:00.0000, -2.456836629337819E+08, -5.641970139939373E+08, 7.595102096908107E+07,
2460259.500000000, A.D. 2023-Nov-11 00:00:00.0000, -2.392420302366219E+08, -5.637207214788095E+08, 7.620716428268829E+07,
2460266.500000000, A.D. 2023-Nov-18 00:00:00.0000, -2.327510305318183E+08, -5.631280266543422E+08, 7.644756493775088E+07,
2460273.500000000, A.D. 2023-Nov-25 00:00:00.0000, -2.262112940236053E+08, -5.624173384549905E+08, 7.667194053744492E+07,
2460280.500000000, A.D. 2023-Dec-02 00:00:00.0000, -2.196234699981337E+08, -5.615870171060420E+08, 7.688000012410712E+07,
2460287.500000000, A.D. 2023-Dec-09 00:00:00.0000, -2.129882284495150E+08, -5.606353724001938E+08, 7.707144377147728E+07,
2460294.500000000, A.D. 2023-Dec-16 00:00:00.0000, -2.063062614491927E+08, -5.595606620273643E+08, 7.724596211072519E+07,
2460301.500000000, A.D. 2023-Dec-23 00:00:00.0000, -1.995782839196208E+08, -5.583610892640238E+08, 7.740323581300429E+07,
2460308.500000000, A.D. 2023-Dec-30 00:00:00.0000, -1.928050351627599E+08, -5.570347989658556E+08, 7.754293523549557E+07,
2460315.500000000, A.D. 2024-Jan-06 00:00:00.0000, -1.859872829268557E+08, -5.555798742169327E+08, 7.766472019860908E+07,
2460322.500000000, A.D. 2024-Jan-13 00:00:00.0000, -1.791258268507684E+08, -5.539943354348242E+08, 7.776823945357883E+07,
2460329.500000000, A.D. 2024-Jan-20 00:00:00.0000, -1.722215000760443E+08, -5.522761388394585E+08, 7.785312997822791E+07,
2460336.500000000, A.D. 2024-Jan-27 00:00:00.0000, -1.652751710708919E+08, -5.504231736249743E+08, 7.791901633803633E+07,
2460343.500000000, A.D. 2024-Feb-03 00:00:00.0000, -1.582877461113779E+08, -5.484332587735007E+08, 7.796551007175767E+07,
2460350.500000000, A.D. 2024-Feb-10 00:00:00.0000, -1.512601721609977E+08, -5.463041397913098E+08, 7.799220904954119E+07,
2460357.500000000, A.D. 2024-Feb-17 00:00:00.0000, -1.441934400300982E+08, -5.440334853478380E+08, 7.799869678838538E+07,
2460364.500000000, A.D. 2024-Feb-24 00:00:00.0000, -1.370885878011762E+08, -5.416188837905242E+08, 7.798454171948417E+07,
2460371.500000000, A.D. 2024-Mar-02 00:00:00.0000, -1.299467045148398E+08, -5.390578395553507E+08, 7.794929639861627E+07,
2460378.500000000, A.D. 2024-Mar-09 00:00:00.0000, -1.227689340045267E+08, -5.363477695230638E+08, 7.789249663811859E+07,
2460385.500000000, A.D. 2024-Mar-16 00:00:00.0000, -1.155564785149908E+08, -5.334859991105264E+08, 7.781366053662357E+07,
2460392.500000000, A.D. 2024-Mar-23 00:00:00.0000, -1.083106022423896E+08, -5.304697569739887E+08, 7.771228750278684E+07,
2460399.500000000, A.D. 2024-Mar-30 00:00:00.0000, -1.010326370754930E+08, -5.272961683353745E+08, 7.758785747203121E+07,
2460406.500000000, A.D. 2024-Apr-06 00:00:00.0000, -9.372399032440609E+07, -5.239622502821355E+08, 7.743983001272705E+07,
2460413.500000000, A.D. 2024-Apr-13 00:00:00.0000, -8.638615093294840E+07, -5.204649081867306E+08, 7.726764305927199E+07,
2460420.500000000, A.D. 2024-Apr-20 00:00:00.0000, -7.902069518013050E+07, -5.168009305507355E+08, 7.707071157266077E+07,
2460427.500000000, A.D. 2024-Apr-27 00:00:00.0000, -7.162929344751462E+07, -5.129669828151142E+08, 7.684842621576524E+07,
2460434.500000000, A.D. 2024-May-04 00:00:00.0000, -6.421371803146134E+07, -5.089596008188568E+08, 7.660015197112878E+07,
2460441.500000000, A.D. 2024-May-11 00:00:00.0000, -5.677585183701698E+07, -5.047751839854963E+08, 7.632522666385321E+07,
2460448.500000000, A.D. 2024-May-18 00:00:00.0000, -4.931769795588107E+07, -5.004099881927197E+08, 7.602295937597792E+07,
2460455.500000000, A.D. 2024-May-25 00:00:00.0000, -4.184139019887577E+07, -4.958601183084970E+08, 7.569262874107613E+07,
2460462.500000000, A.D. 2024-Jun-01 00:00:00.0000, -3.434920463069385E+07, -4.911215204272590E+08, 7.533348109990132E+07,
2460469.500000000, A.D. 2024-Jun-08 00:00:00.0000, -2.684357198266266E+07, -4.861899738051000E+08, 7.494472848297243E+07,
2460476.500000000, A.D. 2024-Jun-15 00:00:00.0000, -1.932709068265963E+07, -4.810610819249993E+08, 7.452554641754712E+07,
2460483.500000000, A.D. 2024-Jun-22 00:00:00.0000, -1.180254166490106E+07, -4.757302614931691E+08, 7.407507173574191E+07,
2460490.500000000, A.D. 2024-Jun-29 00:00:00.0000, -4.272907259855676E+06, -4.701927311640762E+08, 7.359240041686186E+07,
2460497.500000000, A.D. 2024-Jul-06 00:00:00.0000, 3.258608278340569E+06, -4.644435024445081E+08, 7.307658500561622E+07,
2460504.500000000, A.D. 2024-Jul-13 00:00:00.0000, 1.078855832555307E+07, -4.584773699369869E+08, 7.252663164393063E+07,
2460511.500000000, A.D. 2024-Jul-20 00:00:00.0000, 1.831323127259106E+07, -4.522888997641549E+08, 7.194149697741346E+07,
2460518.500000000, A.D. 2024-Jul-27 00:00:00.0000, 2.582862478280293E+07, -4.458724171312821E+08, 7.132008490243924E+07,
2460525.500000000, A.D. 2024-Aug-03 00:00:00.0000, 3.333041684809719E+07, -4.392219934098134E+08, 7.066124308166131E+07,
2460532.500000000, A.D. 2024-Aug-10 00:00:00.0000, 4.081393341027442E+07, -4.323314327681100E+08, 6.996375919528376E+07,
2460539.500000000, A.D. 2024-Aug-17 00:00:00.0000, 4.827411213634072E+07, -4.251942583676063E+08, 6.922635690806566E+07,
2460546.500000000, A.D. 2024-Aug-24 00:00:00.0000, 5.570546184787203E+07, -4.178036982112604E+08, 6.844769153044875E+07,
2460553.500000000, A.D. 2024-Aug-31 00:00:00.0000, 6.310201711173712E+07, -4.101526708036334E+08, 6.762634534212683E+07,
2460560.500000000, A.D. 2024-Sep-07 00:00:00.0000, 7.045728765510161E+07, -4.022337706377361E+08, 6.676082254102512E+07,
2460567.500000000, A.D. 2024-Sep-14 00:00:00.0000, 7.776420187738536E+07, -3.940392527108549E+08, 6.584954388078550E+07,
2460574.500000000, A.D. 2024-Sep-21 00:00:00.0000, 8.501504148981607E+07, -3.855610159277433E+08, 6.489084121090217E+07,
2460581.500000000, A.D. 2024-Sep-28 00:00:00.0000, 9.220136570665872E+07, -3.767905889842815E+08, 6.388295170182541E+07,
2460588.500000000, A.D. 2024-Oct-05 00:00:00.0000, 9.931392739832024E+07, -3.677191192207950E+08, 6.282401143104190E+07,
2460595.500000000, A.D. 2024-Oct-12 00:00:00.0000, 1.063425793862736E+08, -3.583373621195579E+08, 6.171204863510907E+07,
2460602.500000000, A.D. 2024-Oct-19 00:00:00.0000, 1.132761674383026E+08, -3.486356725811827E+08, 6.054497681518474E+07,
2460609.500000000, A.D. 2024-Oct-26 00:00:00.0000, 1.201024079787962E+08, -3.386039999158507E+08, 5.932058771071827E+07,
2460616.500000000, A.D. 2024-Nov-02 00:00:00.0000, 1.268077485237649E+08, -3.282318881867132E+08, 5.803654422253761E+07,
2460623.500000000, A.D. 2024-Nov-09 00:00:00.0000, 1.333772083602453E+08, -3.175084838387983E+08, 5.669037345138741E+07,
2460630.500000000, A.D. 2024-Nov-16 00:00:00.0000, 1.397941965549997E+08, -3.064225531747225E+08, 5.527946010037316E+07,
2460637.500000000, A.D. 2024-Nov-23 00:00:00.0000, 1.460403040067960E+08, -2.949625130778598E+08, 5.380104058843552E+07,
2460644.500000000, A.D. 2024-Nov-30 00:00:00.0000, 1.520950660167573E+08, -2.831164794007923E+08, 5.225219834876978E+07,
2460651.500000000, A.D. 2024-Dec-07 00:00:00.0000, 1.579356916820696E+08, -2.708723383035519E+08, 5.062986099439118E+07,
2460658.500000000, A.D. 2024-Dec-14 00:00:00.0000, 1.635367550023175E+08, -2.582178467450431E+08, 4.893080045450971E+07,
2460665.500000000, A.D. 2024-Dec-21 00:00:00.0000, 1.688698408089719E+08, -2.451407730177447E+08, 4.715163747324802E+07,
2460672.500000000, A.D. 2024-Dec-28 00:00:00.0000, 1.739031430702970E+08, -2.316290927985949E+08, 4.528885178254819E+07,
2460679.500000000, A.D. 2025-Jan-04 00:00:00.0000, 1.786010144150186E+08, -2.176712544975706E+08, 4.333880024864153E+07,
2460686.500000000, A.D. 2025-Jan-11 00:00:00.0000, 1.829234628074575E+08, -2.032565330130852E+08, 4.129774644047815E+07,
2460693.500000000, A.D. 2025-Jan-18 00:00:00.0000, 1.868255950615606E+08, -1.883754992995526E+08, 3.916190581880872E+07,
2460700.500000000, A.D. 2025-Jan-25 00:00:00.0000, 1.902570129795197E+08, -1.730206396247090E+08, 3.692751201364516E+07,
2460707.500000000, A.D. 2025-Feb-01 00:00:00.0000, 1.931611759433072E+08, -1.571871659959697E+08, 3.459091137806645E+07,
2460714.500000000, A.D. 2025-Feb-08 00:00:00.0000, 1.954747564088536E+08, -1.408740679488657E+08, 3.214869505335445E+07,
$$EOE